start=new Date('2022-02-19T00:00:00.000Z').valueOf();
sats=[{"REF_FRAME":"TEME","GP_ID":"196330804","EPOCH":"2022-02-18T22:26:11.123808","TLE_LINE2":"2 45408  53.0543 329.4900 0001886  65.5141 294.6045 15.06408197106418","OBJECT_ID":"2020-019BA","REV_AT_EPOCH":"10641","MEAN_ANOMALY":"294.6045","MEAN_ELEMENT_THEORY":"SGP4","MEAN_MOTION_DOT":"0.00000472","RCS_SIZE":"LARGE","SEMIMAJOR_AXIS":"6925.323","INCLINATION":"53.0543","OBJECT_TYPE":"PAYLOAD","RA_OF_ASC_NODE":"329.4900","SITE":"AFETR","MEAN_MOTION":"15.06408197","PERIOD":"95.592","OBJECT_NAME":"STARLINK-1278","TLE_LINE1":"1 45408U 20019BA  22049.93485097  .00000472  00000-0  50593-4 0  9994","APOAPSIS":"548.495","ECCENTRICITY":"0.00018860","COUNTRY_CODE":"US","NORAD_CAT_ID":"45408","EPHEMERIS_TYPE":"0","DECAY_DATE":null,"ARG_OF_PERICENTER":"65.5141","CENTER_NAME":"EARTH","FILE":"3307132","CLASSIFICATION_TYPE":"U","BSTAR":"0.00005059300000","LAUNCH_DATE":"2020-03-18","MEAN_MOTION_DDOT":"0.0000000000000","TIME_SYSTEM":"UTC","PERIAPSIS":"545.882","ELEMENT_SET_NO":"999"},{"PERIAPSIS":"546.038","ELEMENT_SET_NO":"999","LAUNCH_DATE":"2020-03-18","MEAN_MOTION_DDOT":"0.0000000000000","TIME_SYSTEM":"UTC","CENTER_NAME":"EARTH","FILE":"3307132","CLASSIFICATION_TYPE":"U","BSTAR":"0.00008609900000","OBJECT_NAME":"STARLINK-1282","TLE_LINE1":"1 45409U 20019BB  22049.93024195  .00001001  00000-0  86099-4 0  9992","APOAPSIS":"548.330","COUNTRY_CODE":"US","NORAD_CAT_ID":"45409","ECCENTRICITY":"0.00016550","EPHEMERIS_TYPE":"0","DECAY_DATE":null,"ARG_OF_PERICENTER":"71.6251","RA_OF_ASC_NODE":"299.5138","SITE":"AFETR","MEAN_MOTION":"15.06409710","PERIOD":"95.592","MEAN_ELEMENT_THEORY":"SGP4","MEAN_MOTION_DOT":"0.00001001","RCS_SIZE":"LARGE","SEMIMAJOR_AXIS":"6925.319","INCLINATION":"53.0544","OBJECT_TYPE":"PAYLOAD","TLE_LINE2":"2 45409  53.0544 299.5138 0001655  71.6251 288.4918 15.06409710106832","OBJECT_ID":"2020-019BB","MEAN_ANOMALY":"288.4918","REV_AT_EPOCH":"10683","REF_FRAME":"TEME","GP_ID":"196331054","EPOCH":"2022-02-18T22:19:32.904480"},{"ELEMENT_SET_NO":"999","PERIAPSIS":"337.708","TIME_SYSTEM":"UTC","MEAN_MOTION_DDOT":"0.0000000000000","LAUNCH_DATE":"2020-03-18","FILE":"3307132","CLASSIFICATION_TYPE":"U","BSTAR":"-0.00008134000000","CENTER_NAME":"EARTH","DECAY_DATE":null,"ARG_OF_PERICENTER":"12.0783","ECCENTRICITY":"0.00031610","COUNTRY_CODE":"US","NORAD_CAT_ID":"45410","EPHEMERIS_TYPE":"0","APOAPSIS":"341.955","OBJECT_NAME":"STARLINK-1285","TLE_LINE1":"1 45410U 20019BC  22049.84242604 -.00013931  00000-0 -81340-4 0  9992","MEAN_MOTION":"15.76689020","PERIOD":"91.331","SITE":"AFETR","RA_OF_ASC_NODE":"189.8027","INCLINATION":"53.0493","OBJECT_TYPE":"PAYLOAD","RCS_SIZE":"LARGE","SEMIMAJOR_AXIS":"6717.966","MEAN_MOTION_DOT":"-0.00013931","MEAN_ELEMENT_THEORY":"SGP4","REV_AT_EPOCH":"10834","MEAN_ANOMALY":"348.0311","OBJECT_ID":"2020-019BC","TLE_LINE2":"2 45410  53.0493 189.8027 0003161  12.0783 348.0311 15.76689020108347","EPOCH":"2022-02-18T20:13:05.609856","GP_ID":"196331306","REF_FRAME":"TEME"},{"REF_FRAME":"TEME","GP_ID":"196332053","EPOCH":"2022-02-18T22:40:47.543808","TLE_LINE2":"2 45411  53.0533 299.4409 0001663  78.4138 281.7038 15.06399100106853","OBJECT_ID":"2020-019BD","MEAN_ANOMALY":"281.7038","REV_AT_EPOCH":"10685","MEAN_ELEMENT_THEORY":"SGP4","MEAN_MOTION_DOT":"0.00000319","SEMIMAJOR_AXIS":"6925.351","RCS_SIZE":"LARGE","OBJECT_TYPE":"PAYLOAD","INCLINATION":"53.0533","RA_OF_ASC_NODE":"299.4409","SITE":"AFETR","PERIOD":"95.592","MEAN_MOTION":"15.06399100","TLE_LINE1":"1 45411U 20019BD  22049.94499472  .00000319  00000-0  40330-4 0  9999","OBJECT_NAME":"STARLINK-1293","APOAPSIS":"548.368","EPHEMERIS_TYPE":"0","ECCENTRICITY":"0.00016630","COUNTRY_CODE":"US","NORAD_CAT_ID":"45411","ARG_OF_PERICENTER":"78.4138","DECAY_DATE":null,"CENTER_NAME":"EARTH","FILE":"3307132","BSTAR":"0.00004033000000","CLASSIFICATION_TYPE":"U","LAUNCH_DATE":"2020-03-18","MEAN_MOTION_DDOT":"0.0000000000000","TIME_SYSTEM":"UTC","PERIAPSIS":"546.065","ELEMENT_SET_NO":"999"},{"SITE":"AFETR","RA_OF_ASC_NODE":"299.6128","MEAN_MOTION":"15.06391678","PERIOD":"95.593","MEAN_MOTION_DOT":"-0.00002810","MEAN_ELEMENT_THEORY":"SGP4","INCLINATION":"53.0527","OBJECT_TYPE":"PAYLOAD","RCS_SIZE":"LARGE","SEMIMAJOR_AXIS":"6925.374","TLE_LINE2":"2 45412  53.0527 299.6128 0001602  71.3783 288.7380 15.06391678106824","REV_AT_EPOCH":"10682","MEAN_ANOMALY":"288.7380","OBJECT_ID":"2020-019BE","REF_FRAME":"TEME","GP_ID":"196330305","EPOCH":"2022-02-18T21:53:00.897216","PERIAPSIS":"546.130","ELEMENT_SET_NO":"999","MEAN_MOTION_DDOT":"0.0000000000000","LAUNCH_DATE":"2020-03-18","TIME_SYSTEM":"UTC","CLASSIFICATION_TYPE":"U","FILE":"3307132","BSTAR":"-0.00016984000000","CENTER_NAME":"EARTH","APOAPSIS":"548.349","OBJECT_NAME":"STARLINK-1296","TLE_LINE1":"1 45412U 20019BE  22049.91181594 -.00002810  00000-0 -16984-3 0  9997","ARG_OF_PERICENTER":"71.3783","DECAY_DATE":null,"COUNTRY_CODE":"US","ECCENTRICITY":"0.00016020","NORAD_CAT_ID":"45412","EPHEMERIS_TYPE":"0"},{"RA_OF_ASC_NODE":"299.7676","SITE":"AFETR","PERIOD":"95.593","MEAN_MOTION":"15.06389026","MEAN_MOTION_DOT":"-0.00006337","MEAN_ELEMENT_THEORY":"SGP4","SEMIMAJOR_AXIS":"6925.382","RCS_SIZE":"LARGE","OBJECT_TYPE":"PAYLOAD","INCLINATION":"53.0531","TLE_LINE2":"2 45413  53.0531 299.7676 0001800  79.6000 280.5192 15.06389026106917","OBJECT_ID":"2020-019BF","MEAN_ANOMALY":"280.5192","REV_AT_EPOCH":"10691","GP_ID":"196330555","REF_FRAME":"TEME","EPOCH":"2022-02-18T20:59:56.541408","PERIAPSIS":"546.001","ELEMENT_SET_NO":"999","LAUNCH_DATE":"2020-03-18","MEAN_MOTION_DDOT":"0.0000000000000","TIME_SYSTEM":"UTC","CENTER_NAME":"EARTH","BSTAR":"-0.00040698000000","FILE":"3307132","CLASSIFICATION_TYPE":"U","TLE_LINE1":"1 45413U 20019BF  22049.87495997 -.00006337  00000-0 -40698-3 0  9995","OBJECT_NAME":"STARLINK-1298","APOAPSIS":"548.494","EPHEMERIS_TYPE":"0","COUNTRY_CODE":"US","NORAD_CAT_ID":"45413","ECCENTRICITY":"0.00018000","DECAY_DATE":null,"ARG_OF_PERICENTER":"79.6000"},{"FILE":"3307132","CLASSIFICATION_TYPE":"U","BSTAR":"0.00023176000000","CENTER_NAME":"EARTH","APOAPSIS":"548.206","TLE_LINE1":"1 45414U 20019BG  22049.92656370  .00003172  00000-0  23176-3 0  9990","OBJECT_NAME":"STARLINK-1309","ARG_OF_PERICENTER":"83.6988","DECAY_DATE":null,"EPHEMERIS_TYPE":"0","ECCENTRICITY":"0.00014040","COUNTRY_CODE":"US","NORAD_CAT_ID":"45414","PERIAPSIS":"546.261","ELEMENT_SET_NO":"999","MEAN_MOTION_DDOT":"0.0000000000000","LAUNCH_DATE":"2020-03-18","TIME_SYSTEM":"UTC","TLE_LINE2":"2 45414  53.0543 299.5337 0001404  83.6988 276.4161 15.06393431106817","REV_AT_EPOCH":"10681","MEAN_ANOMALY":"276.4161","OBJECT_ID":"2020-019BG","REF_FRAME":"TEME","GP_ID":"196331806","EPOCH":"2022-02-18T22:14:15.103680","SITE":"AFETR","RA_OF_ASC_NODE":"299.5337","PERIOD":"95.593","MEAN_MOTION":"15.06393431","MEAN_ELEMENT_THEORY":"SGP4","MEAN_MOTION_DOT":"0.00003172","OBJECT_TYPE":"PAYLOAD","INCLINATION":"53.0543","SEMIMAJOR_AXIS":"6925.369","RCS_SIZE":"LARGE"},{"TLE_LINE2":"2 45415  53.0556 299.7080 0001548  88.2676 271.8491 15.06407742106842","MEAN_ANOMALY":"271.8491","REV_AT_EPOCH":"10684","OBJECT_ID":"2020-019BH","REF_FRAME":"TEME","GP_ID":"196331554","EPOCH":"2022-02-18T21:15:51.308064","SITE":"AFETR","RA_OF_ASC_NODE":"299.7080","PERIOD":"95.592","MEAN_MOTION":"15.06407742","MEAN_MOTION_DOT":"0.00001471","MEAN_ELEMENT_THEORY":"SGP4","OBJECT_TYPE":"PAYLOAD","INCLINATION":"53.0556","SEMIMAJOR_AXIS":"6925.325","RCS_SIZE":"LARGE","FILE":"3307132","BSTAR":"0.00011759000000","CLASSIFICATION_TYPE":"U","CENTER_NAME":"EARTH","APOAPSIS":"548.262","TLE_LINE1":"1 45415U 20019BH  22049.88601051  .00001471  00000-0  11759-3 0  9996","OBJECT_NAME":"STARLINK-1316","DECAY_DATE":null,"ARG_OF_PERICENTER":"88.2676","EPHEMERIS_TYPE":"0","NORAD_CAT_ID":"45415","COUNTRY_CODE":"US","ECCENTRICITY":"0.00015480","PERIAPSIS":"546.118","ELEMENT_SET_NO":"999","MEAN_MOTION_DDOT":"0.0000000000000","LAUNCH_DATE":"2020-03-18","TIME_SYSTEM":"UTC"},{"FILE":"3307132","BSTAR":"0.00005312800000","CLASSIFICATION_TYPE":"U","CENTER_NAME":"EARTH","APOAPSIS":"548.346","TLE_LINE1":"1 45416U 20019BJ  22049.91918724  .00000510  00000-0  53128-4 0  9999","OBJECT_NAME":"STARLINK-1318","DECAY_DATE":null,"ARG_OF_PERICENTER":"81.7384","EPHEMERIS_TYPE":"0","COUNTRY_CODE":"US","NORAD_CAT_ID":"45416","ECCENTRICITY":"0.00016590","PERIAPSIS":"546.049","ELEMENT_SET_NO":"999","MEAN_MOTION_DDOT":"0.0000000000000","LAUNCH_DATE":"2020-03-18","TIME_SYSTEM":"UTC","TLE_LINE2":"2 45416  53.0548 299.5809 0001659  81.7384 278.3793 15.06405226106839","MEAN_ANOMALY":"278.3793","REV_AT_EPOCH":"10683","OBJECT_ID":"2020-019BJ","REF_FRAME":"TEME","GP_ID":"196330805","EPOCH":"2022-02-18T22:03:37.777536","SITE":"AFETR","RA_OF_ASC_NODE":"299.5809","PERIOD":"95.592","MEAN_MOTION":"15.06405226","MEAN_ELEMENT_THEORY":"SGP4","MEAN_MOTION_DOT":"0.00000510","OBJECT_TYPE":"PAYLOAD","INCLINATION":"53.0548","SEMIMAJOR_AXIS":"6925.333","RCS_SIZE":"LARGE"},{"CENTER_NAME":"EARTH","BSTAR":"0.00011326000000","FILE":"3307132","CLASSIFICATION_TYPE":"U","EPHEMERIS_TYPE":"0","COUNTRY_CODE":"US","NORAD_CAT_ID":"45417","ECCENTRICITY":"0.00017150","DECAY_DATE":null,"ARG_OF_PERICENTER":"78.3381","TLE_LINE1":"1 45417U 20019BK  22049.92379197  .00001406  00000-0  11326-3 0  9994","OBJECT_NAME":"STARLINK-1286","APOAPSIS":"548.363","ELEMENT_SET_NO":"999","PERIAPSIS":"545.988","TIME_SYSTEM":"UTC","LAUNCH_DATE":"2020-03-18","MEAN_MOTION_DDOT":"0.0000000000000","OBJECT_ID":"2020-019BK","MEAN_ANOMALY":"281.7801","REV_AT_EPOCH":"10668","TLE_LINE2":"2 45417  53.0534 329.5595 0001715  78.3381 281.7801 15.06412444106684","EPOCH":"2022-02-18T22:10:15.626208","GP_ID":"196331055","REF_FRAME":"TEME","PERIOD":"95.591","MEAN_MOTION":"15.06412444","RA_OF_ASC_NODE":"329.5595","SITE":"AFETR","SEMIMAJOR_AXIS":"6925.310","RCS_SIZE":"LARGE","OBJECT_TYPE":"PAYLOAD","INCLINATION":"53.0534","MEAN_MOTION_DOT":"0.00001406","MEAN_ELEMENT_THEORY":"SGP4"}];
